LEMUR-2-AMANDA-SVANTE   
1 48269U 21034B   26068.77637527  .00030872  00000+0  11134-2 0  9996
2 48269  97.5829 144.8625 0002703 205.4721 154.6385 15.28469003265849
STARLINK-31675          
1 59548U 24074Q   26068.15009721 -.00003433  00000+0 -11533-3 0  9995
2 59548  43.0020 346.4129 0000091  29.6362 330.4495 15.27570707105936
